SL-4 R/B                
1 39679U 14021B   25359.10088687  .00012677  00000+0  30059-3 0  9996
2 39679  51.6087 340.5080 0100853 190.8581 169.0226 15.36950243644796
ALOS-2                  
1 39766U 14029A   25359.18749537  .00002318  00000+0  31726-3 0  9990
2 39766  97.9222  93.8561 0001400 101.1927 258.9441 14.79467887625852
YAOGAN-29               
1 41038U 15069A   25359.23537911  .00001004  00000+0  13059-3 0  9997
2 41038  98.0205  22.4463 0000921 163.2733 196.8510 14.82897096544849
ASTRO-H (HITOMI)        
1 41337U 16012A   25358.65961124  .00003659  00000+0  21730-3 0  9993
2 41337  30.9990 120.5213 0009692 298.1550  61.8109 15.09426021540880
HXMT (HUIYAN)           
1 42758U 17034A   25359.24087330  .00006556  00000+0  33943-3 0  9998
2 42758  43.0144  70.2506 0031233 125.4996 234.8772 15.16378936471231
CZ-2C R/B               
1 43521U 18054D   25358.96486301  .00118228  00000+0  69804-3 0  9994
2 43521  35.1337  97.8390 0014674 265.6717  94.2340 15.76639870416983
SAOCOM 1A               
1 43641U 18076A   25359.16135995  .00000135  00000+0  23531-4 0  9999
2 43641  97.8843 183.4023 0001404  81.4864 278.6509 14.82145835390325
H-2A R/B                
1 43682U 18084L   25359.12226870  .00019792  00000+0  52852-3 0  9998
2 43682  98.8769 195.7722 0026547 282.9906  76.8370 15.37814232394301
SAOCOM 1B               
1 46265U 20059A   25359.19262458  .00000153  00000+0  25724-4 0  9992
2 46265  97.8838 182.5329 0001399  86.1948 273.9425 14.82148249287716
CSS (TIANHE)            
1 48274U 21035A   25359.07486602  .00016485  00000+0  20421-3 0  9998
2 48274  41.4684 301.7934 0008271 139.6040 220.5414 15.59658287265953
CZ-2C R/B               
1 52794U 22058K   25358.67847865  .00027249  00000+0  47985-3 0  9997
2 52794  50.1922 342.6388 0044643 247.7057 111.9175 15.49077723198485
